SOYUZ-MS 28             
1 66664U 25275A   25345.50919951  .00014464  00000+0  26545-3 0  9990
2 66664  51.6308 148.5724 0003316 235.7177 124.3498 15.49508857  1283
1998-067XS              
1 66906U 98067XS  25345.18243349  .00038814  00000+0  67409-3 0  9992
2 66906  51.6302 150.1407 0003746 195.2111 164.8766 15.50439588  1371
1998-067XT              
1 66907U 98067XT  25343.50529068  .00076342  00000+0  12921-2 0  9998
2 66907  51.6307 158.4423 0004803 208.5081 151.5646 15.50864429  1113
1998-067XU              
1 66908U 98067XU  25344.66485337  .00087912  00000+0  14714-2 0  9994
2 66908  51.6304 152.6848 0004812 213.5482 146.5203 15.51115637  1292
SILVERSAT               
1 66909U 98067XV  25345.63090403  .00080084  00000+0  13284-2 0  9993
2 66909  51.6302 147.8859 0004544 221.0614 139.0034 15.51411280  1441
1998-067XW              
1 66910U 98067XW  25345.50069322  .00098314  00000+0  16175-2 0  9994
2 66910  51.6307 148.5174 0005350 201.3550 158.7217 15.51542196  1422
1998-067XX              
1 66911U 98067XX  25345.17815372  .00098261  00000+0  16096-2 0  9995
2 66911  51.6299 150.1129 0005191 201.0739 159.0038 15.51664190  1368
1998-067XY              
1 66912U 98067XY  25345.50335925  .00062656  00000+0  10603-2 0  9991
2 66912  51.6302 148.5351 0004664 216.8191 143.2479 15.50956901  1415
